satname,norad_id,inclination_deg,eccentricity,mean_motion_rev_per_day,perigee_km,apogee_km,l1,l2
STARLINK-1555,46032,53.0559,0.0001386,15.0639917,546.2542481071978,548.1739554326095,1 46032U 20055F   26050.57565717  .00001793  00000+0  13925-3 0  9995,2 46032  53.0559 207.9341 0001386  91.3512 268.7635 15.06399170306163
STARLINK-1556,46033,53.0559,0.0001231,15.06400823,546.3565254659807,548.0615456599362,1 46033U 20055G   26049.96010039  .00001908  00000+0  14697-3 0  9994,2 46033  53.0559 210.6963 0001231  94.5603 265.5527 15.06400823306040
STARLINK-1557,46034,53.0556,0.0001231,15.06399471,546.3606686404974,548.0656898546276,1 46034U 20055H   26050.42821666  .00000366  00000+0  43473-4 0  9996,2 46034  53.0556 208.5962 0001231  90.0638 270.0492 15.06399471306118
STARLINK-1558,46035,53.0565,0.0001446,15.06410698,546.1773696427263,548.1801709634983,1 46035U 20055J   26050.43559557 -.00004207  00000+0 -26365-3 0  9995,2 46035  53.0565 208.5596 0001446 125.1797 234.9328 15.06410698306141
STARLINK-1560,46036,53.0561,0.0001193,15.06396814,546.3951273387338,548.0475178345032,1 46036U 20055K   26050.42084202  .00001158  00000+0  96604-4 0  9999,2 46036  53.0561 208.6293 0001193  91.2835 268.8291 15.06396814306146
STARLINK-1567,46038,53.0553,0.0001334,15.06396683,546.2978812304027,548.1455669379884,1 46038U 20055M   26050.43190268 -.00000097  00000+0  12400-4 0  9996,2 46038  53.0553 208.5794 0001334  99.8812 260.2328 15.06396683306130
STARLINK-1569,46039,53.0558,0.0001375,15.06403419,546.2488452296311,548.1533132014147,1 46039U 20055N   26050.43927043  .00001542  00000+0  12237-3 0  9998,2 46039  53.0558 208.5463 0001375  89.1969 270.9178 15.06403419306136
STARLINK-1582,46043,53.056,0.0001363,15.06394611,546.2841472367045,548.1720017560128,1 46043U 20055S   26050.57935762  .00002060  00000+0  15717-3 0  9997,2 46043  53.0560 207.9180 0001363  84.8184 275.2960 15.06394611306153
STARLINK-1591,46045,53.0558,0.0001274,15.06383465,546.3799399327145,548.1445316579957,1 46045U 20055U   26050.47245622  .00001306  00000+0  10663-3 0  9994,2 46045  53.0558 208.3979 0001274  89.8285 270.2850 15.06383465306126
STARLINK-1524,46047,53.1069,7.26e-05,15.18540473,509.7507789510619,510.75097287064455,1 46047U 20055W   26050.58336806  .01253536  00000+0  55523-1 0  9990,2 46047  53.1069 197.5925 0000726 126.0333 181.0604 15.18540473  5832
STARLINK-1527,46048,53.1,0.0001261,15.17116606,513.6910282028421,515.4293664360057,1 46048U 20055X   26050.58336806  .01435046  00000+0  65455-1 0  9994,2 46048  53.1000 197.6918 0001261 105.1234 167.5537 15.17116606  5834
STARLINK-1540,46051,53.1065,0.0001204,15.18336526,510.0382703211908,511.6971426545124,1 46051U 20055AA  26050.58336806  .00742231  00000+0  33164-1 0  9996,2 46051  53.1065 197.5847 0001204 100.4422  51.1020 15.18336526  5799
STARLINK-1541,46052,53.1033,0.000135,15.18195808,510.36331057668576,512.2234567802789,1 46052U 20055AB  26050.58336806  .00024240  00000+0  11825-2 0  9991,2 46052  53.1033 197.4867 0001350 115.0531 171.9444 15.18195808  5833
STARLINK-1543,46053,53.103,0.0002131,15.18150858,509.9612063663417,512.8975395544976,1 46053U 20055AC  26050.58336806  .00054911  00000+0  26515-2 0  9992,2 46053  53.1030 197.6088 0002131  94.5661 103.8341 15.18150858  5837
STARLINK-1548,46054,53.1039,0.0002222,15.18130266,509.96079762588215,513.0225486082154,1 46054U 20055AD  26050.58336806  .00053604  00000+0  25907-2 0  9995,2 46054  53.1039 197.5862 0002222  90.2552  80.0464 15.18130266  5674
STARLINK-1554,46055,53.0986,0.0001595,15.1707965,513.5727310279972,515.7715371417708,1 46055U 20055AE  26050.58336806  .00048604  00000+0  24240-2 0  9999,2 46055  53.0986 197.6017 0001595 115.3531 126.8684 15.17079650  5835
STARLINK-1564,46058,53.1028,0.0002014,15.18055472,510.33035400964945,513.1055875918873,1 46058U 20055AH  26050.58336806  .00052594  00000+0  25480-2 0  9992,2 46058  53.1028 198.0655 0002014  82.5938  98.7856 15.18055472  5837
STARLINK-1570,46059,53.102,6.13e-05,15.17362037,513.3944449853652,514.2393985361732,1 46059U 20055AJ  26050.58336806  .01479746  00000+0  66831-1 0  9990,2 46059  53.1020 197.6854 0000613 136.3517 199.6002 15.17362037  5831
STARLINK-1572,46060,53.0967,3.32e-05,15.1679517,515.3050835204767,515.7628232717825,1 46060U 20055AK  26050.58336806  .00042876  00000+0  21593-2 0  9998,2 46060  53.0967 197.6514 0000332 118.7233 255.6987 15.16795170  5834
STARLINK-1573,46061,53.104,0.0001018,15.18066166,510.984229816896,512.3869977010572,1 46061U 20055AL  26050.58336806  .01443797  00000+0  64058-1 0  9999,2 46061  53.1040 197.6842 0001018  57.0536 339.8032 15.18066166  5839
STARLINK-1577,46063,53.1057,0.0001238,15.18319963,510.06494178039793,511.77067175055254,1 46063U 20055AN  26050.58336806  .01422245  00000+0  62732-1 0  9993,2 46063  53.1057 197.6363 0001238 114.9766 147.9535 15.18319963  5831
STARLINK-1583,46064,53.1047,0.0001197,15.18135635,510.6507427089491,512.3001159245268,1 46064U 20055AP  26050.58336806  .01461764  00000+0  64655-1 0  9999,2 46064  53.1047 197.6509 0001197  67.5103   7.8422 15.18135635  5836
STARLINK-1525,46066,53.0552,0.0001129,15.06393157,546.4506566070686,548.0144050471281,1 46066U 20055AR  26050.52682852  .00002108  00000+0  16042-3 0  9991,2 46066  53.0552 178.1540 0001129  74.1978 285.9135 15.06393157306562
STARLINK-1536,46070,53.0561,0.0001272,15.0639901,546.3336874248316,548.0954968698752,1 46070U 20055AV  26050.57104543 -.00000196  00000+0  57431-5 0  9992,2 46070  53.0561 177.9540 0001272  93.9734 266.1401 15.06399010306585
STARLINK-1542,46073,53.0541,0.0001402,15.06389641,546.2723686442105,548.2142452822827,1 46073U 20055AY  26050.56367848 -.00000755  00000+0 -31772-4 0  9994,2 46073  53.0541 177.9888 0001402  48.3156 311.7953 15.06389641306575
STARLINK-1549,46074,53.0564,0.0001131,15.06407101,546.4065400210457,547.9730489419571,1 46074U 20055AZ  26050.54892835  .00001033  00000+0  88188-4 0  9993,2 46074  53.0564 178.0550 0001131  87.0236 273.0882 15.06407101306569
STARLINK-1551,46075,53.056,0.0001386,15.06394528,546.2684732463495,548.1881845155158,1 46075U 20055BA  26050.57472981 -.00003752  00000+0 -23318-3 0  9998,2 46075  53.0560 177.9374 0001386  82.1823 277.9323 15.06394528306570
STARLINK-1552,46076,53.0579,0.0001254,15.0639953,546.3445595311568,548.0814373107614,1 46076U 20055BB  26050.53418377  .00000057  00000+0  22705-4 0  9997,2 46076  53.0579 178.1179 0001254 107.2642 252.8484 15.06399530306555
